MALLIGYONG-1            
1 58400U 23179A   24291.83844015  .00010324  00000+0  46275-3 0  9996
2 58400  97.3833 176.5245 0008860  18.1066 342.0484 15.21383260 50377
